start=new Date('%Y-%m-57T00:00:00.000Z').valueOf();
sats=[{"REF_FRAME":"TEME","SEMIMAJOR_AXIS":"6925.373","PERIOD":"95.593","RA_OF_ASC_NODE":"58.7621","GP_ID":"183186422","CLASSIFICATION_TYPE":"U","MEAN_MOTION":"15.06392160","TIME_SYSTEM":"UTC","CENTER_NAME":"EARTH","ECCENTRICITY":"0.00018380","EPOCH":"2021-08-21T13:15:01.264608","TLE_LINE1":"1 46560U 20070AE  21233.55209797 -.00001238  00000-0 -64203-4 0  9990","COUNTRY_CODE":"US","MEAN_MOTION_DDOT":"0.0000000000000","SITE":"AFETR","OBJECT_TYPE":"PAYLOAD","TLE_LINE2":"2 46560  53.0554  58.7621 0001838 100.1523 259.9673 15.06392160 49340","EPHEMERIS_TYPE":"0","MEAN_ANOMALY":"259.9673","PERIAPSIS":"545.965","OBJECT_ID":"2020-070AE","APOAPSIS":"548.510","FILE":"3100831","ARG_OF_PERICENTER":"100.1523","MEAN_ELEMENT_THEORY":"SGP4","OBJECT_NAME":"STARLINK-1706","BSTAR":"-0.00006420300000","DECAY_DATE":null,"LAUNCH_DATE":"2020-10-06","REV_AT_EPOCH":"4934","MEAN_MOTION_DOT":"-0.00001238","RCS_SIZE":"LARGE","INCLINATION":"53.0554","NORAD_CAT_ID":"46560","ELEMENT_SET_NO":"999"},{"INCLINATION":"53.0551","NORAD_CAT_ID":"46561","ELEMENT_SET_NO":"999","MEAN_MOTION_DOT":"0.00000809","RCS_SIZE":"LARGE","REV_AT_EPOCH":"4930","LAUNCH_DATE":"2020-10-06","DECAY_DATE":null,"MEAN_ELEMENT_THEORY":"SGP4","OBJECT_NAME":"STARLINK-1709","BSTAR":"0.00007319400000","ARG_OF_PERICENTER":"114.3179","PERIAPSIS":"546.034","OBJECT_ID":"2020-070AF","FILE":"3100831","APOAPSIS":"548.457","TLE_LINE2":"2 46561  53.0551  59.8876 0001750 114.3179 245.7993 15.06389574 49308","EPHEMERIS_TYPE":"0","MEAN_ANOMALY":"245.7993","MEAN_MOTION_DDOT":"0.0000000000000","SITE":"AFETR","OBJECT_TYPE":"PAYLOAD","TLE_LINE1":"1 46561U 20070AF  21233.30145793  .00000809  00000-0  73194-4 0  9999","EPOCH":"2021-08-21T07:14:05.965152","COUNTRY_CODE":"US","CLASSIFICATION_TYPE":"U","MEAN_MOTION":"15.06389574","TIME_SYSTEM":"UTC","CENTER_NAME":"EARTH","ECCENTRICITY":"0.00017500","GP_ID":"183187172","RA_OF_ASC_NODE":"59.8876","PERIOD":"95.593","REF_FRAME":"TEME","SEMIMAJOR_AXIS":"6925.381"},{"ELEMENT_SET_NO":"999","NORAD_CAT_ID":"46562","INCLINATION":"53.0556","RCS_SIZE":"LARGE","MEAN_MOTION_DOT":"-0.00000525","REV_AT_EPOCH":"4940","LAUNCH_DATE":"2020-10-06","DECAY_DATE":null,"OBJECT_NAME":"STARLINK-1714","BSTAR":"-0.00001635900000","MEAN_ELEMENT_THEORY":"SGP4","ARG_OF_PERICENTER":"111.6818","FILE":"3100831","APOAPSIS":"548.163","OBJECT_ID":"2020-070AG","PERIAPSIS":"546.300","MEAN_ANOMALY":"248.4314","EPHEMERIS_TYPE":"0","TLE_LINE2":"2 46562  53.0556  53.9798 0001345 111.6818 248.4314 15.06394145 49400","SITE":"AFETR","OBJECT_TYPE":"PAYLOAD","MEAN_MOTION_DDOT":"0.0000000000000","COUNTRY_CODE":"US","EPOCH":"2021-08-21T12:04:01.624512","TLE_LINE1":"1 46562U 20070AG  21233.50279658 -.00000525  00000-0 -16359-4 0  9997","CENTER_NAME":"EARTH","ECCENTRICITY":"0.00013450","TIME_SYSTEM":"UTC","MEAN_MOTION":"15.06394145","CLASSIFICATION_TYPE":"U","GP_ID":"183185920","PERIOD":"95.593","RA_OF_ASC_NODE":"53.9798","SEMIMAJOR_AXIS":"6925.367","REF_FRAME":"TEME"},{"RCS_SIZE":"LARGE","MEAN_MOTION_DOT":"-0.00001045","NORAD_CAT_ID":"46563","INCLINATION":"53.0540","ELEMENT_SET_NO":"999","REV_AT_EPOCH":"4940","DECAY_DATE":null,"LAUNCH_DATE":"2020-10-06","ARG_OF_PERICENTER":"110.3234","MEAN_ELEMENT_THEORY":"SGP4","OBJECT_NAME":"STARLINK-1730","BSTAR":"-0.00005129300000","EPHEMERIS_TYPE":"0","TLE_LINE2":"2 46563  53.0540  54.0597 0001762 110.3234 249.7944 15.06390616 49406","MEAN_ANOMALY":"249.7944","PERIAPSIS":"546.022","APOAPSIS":"548.463","FILE":"3100831","OBJECT_ID":"2020-070AH","TLE_LINE1":"1 46563U 20070AH  21233.48436854 -.00001045  00000-0 -51293-4 0  9992","EPOCH":"2021-08-21T11:37:29.441856","COUNTRY_CODE":"US","MEAN_MOTION_DDOT":"0.0000000000000","SITE":"AFETR","OBJECT_TYPE":"PAYLOAD","GP_ID":"183185671","CLASSIFICATION_TYPE":"U","CENTER_NAME":"EARTH","ECCENTRICITY":"0.00017620","MEAN_MOTION":"15.06390616","TIME_SYSTEM":"UTC","SEMIMAJOR_AXIS":"6925.377","REF_FRAME":"TEME","PERIOD":"95.593","RA_OF_ASC_NODE":"54.0597"},{"RCS_SIZE":"LARGE","MEAN_MOTION_DOT":"0.00000974","INCLINATION":"53.0555","NORAD_CAT_ID":"46564","ELEMENT_SET_NO":"999","REV_AT_EPOCH":"4941","DECAY_DATE":null,"LAUNCH_DATE":"2020-10-06","ARG_OF_PERICENTER":"96.4816","MEAN_ELEMENT_THEORY":"SGP4","BSTAR":"0.00008425500000","OBJECT_NAME":"STARLINK-1733","TLE_LINE2":"2 46564  53.0555  53.8483 0001936  96.4816 263.6393 15.06400234 49419","EPHEMERIS_TYPE":"0","MEAN_ANOMALY":"263.6393","PERIAPSIS":"545.872","OBJECT_ID":"2020-070AJ","FILE":"3100831","APOAPSIS":"548.554","EPOCH":"2021-08-21T12:46:29.017920","TLE_LINE1":"1 46564U 20070AJ  21233.53228030  .00000974  00000-0  84255-4 0  9996","COUNTRY_CODE":"US","MEAN_MOTION_DDOT":"0.0000000000000","SITE":"AFETR","OBJECT_TYPE":"PAYLOAD","GP_ID":"183186922","CLASSIFICATION_TYPE":"U","MEAN_MOTION":"15.06400234","TIME_SYSTEM":"UTC","CENTER_NAME":"EARTH","ECCENTRICITY":"0.00019360","REF_FRAME":"TEME","SEMIMAJOR_AXIS":"6925.348","PERIOD":"95.592","RA_OF_ASC_NODE":"53.8483"},{"MEAN_ANOMALY":"264.3875","TLE_LINE2":"2 46565  53.0546  53.8586 0002153  95.7360 264.3875 15.06397573 49405","EPHEMERIS_TYPE":"0","OBJECT_ID":"2020-070AK","FILE":"3100831","APOAPSIS":"548.712","PERIAPSIS":"545.730","COUNTRY_CODE":"US","EPOCH":"2021-08-21T12:14:38.535936","TLE_LINE1":"1 46565U 20070AK  21233.51016824 -.00001216  00000-0 -62756-4 0  9995","OBJECT_TYPE":"PAYLOAD","SITE":"AFETR","MEAN_MOTION_DDOT":"0.0000000000000","GP_ID":"183186673","MEAN_MOTION":"15.06397573","TIME_SYSTEM":"UTC","CENTER_NAME":"EARTH","ECCENTRICITY":"0.00021530","CLASSIFICATION_TYPE":"U","REF_FRAME":"TEME","SEMIMAJOR_AXIS":"6925.356","PERIOD":"95.592","RA_OF_ASC_NODE":"53.8586","RCS_SIZE":"LARGE","MEAN_MOTION_DOT":"-0.00001216","ELEMENT_SET_NO":"999","INCLINATION":"53.0546","NORAD_CAT_ID":"46565","REV_AT_EPOCH":"4940","DECAY_DATE":null,"LAUNCH_DATE":"2020-10-06","ARG_OF_PERICENTER":"95.7360","OBJECT_NAME":"STARLINK-1735","BSTAR":"-0.00006275600000","MEAN_ELEMENT_THEORY":"SGP4"},{"BSTAR":"0.00006691200000","OBJECT_NAME":"STARLINK-1740","MEAN_ELEMENT_THEORY":"SGP4","ARG_OF_PERICENTER":"113.8067","LAUNCH_DATE":"2020-10-06","DECAY_DATE":null,"REV_AT_EPOCH":"4940","ELEMENT_SET_NO":"999","INCLINATION":"53.0557","NORAD_CAT_ID":"46566","RCS_SIZE":"LARGE","MEAN_MOTION_DOT":"0.00000715","PERIOD":"95.593","RA_OF_ASC_NODE":"54.0192","REF_FRAME":"TEME","SEMIMAJOR_AXIS":"6925.377","MEAN_MOTION":"15.06390883","TIME_SYSTEM":"UTC","ECCENTRICITY":"0.00018220","CENTER_NAME":"EARTH","CLASSIFICATION_TYPE":"U","GP_ID":"183185421","SITE":"AFETR","OBJECT_TYPE":"PAYLOAD","MEAN_MOTION_DDOT":"0.0000000000000","COUNTRY_CODE":"US","TLE_LINE1":"1 46566U 20070AL  21233.49543058  .00000715  00000-0  66912-4 0  9996","EPOCH":"2021-08-21T11:53:25.202112","OBJECT_ID":"2020-070AL","FILE":"3100831","APOAPSIS":"548.503","PERIAPSIS":"545.980","MEAN_ANOMALY":"246.3113","TLE_LINE2":"2 46566  53.0557  54.0192 0001822 113.8067 246.3113 15.06390883 49404","EPHEMERIS_TYPE":"0"},{"EPOCH":"2021-08-21T12:35:52.037376","TLE_LINE1":"1 46567U 20070AM  21233.52490784  .00000446  00000-0  48832-4 0  9990","COUNTRY_CODE":"US","MEAN_MOTION_DDOT":"0.0000000000000","SITE":"AFETR","OBJECT_TYPE":"PAYLOAD","TLE_LINE2":"2 46567  53.0555  53.8895 0001501 104.7839 255.3316 15.06394518 49415","EPHEMERIS_TYPE":"0","MEAN_ANOMALY":"255.3316","PERIAPSIS":"546.191","OBJECT_ID":"2020-070AM","FILE":"3100831","APOAPSIS":"548.270","REF_FRAME":"TEME","SEMIMAJOR_AXIS":"6925.365","PERIOD":"95.592","RA_OF_ASC_NODE":"53.8895","GP_ID":"183186171","CLASSIFICATION_TYPE":"U","MEAN_MOTION":"15.06394518","TIME_SYSTEM":"UTC","ECCENTRICITY":"0.00015010","CENTER_NAME":"EARTH","REV_AT_EPOCH":"4941","MEAN_MOTION_DOT":"0.00000446","RCS_SIZE":"LARGE","INCLINATION":"53.0555","NORAD_CAT_ID":"46567","ELEMENT_SET_NO":"999","ARG_OF_PERICENTER":"104.7839","MEAN_ELEMENT_THEORY":"SGP4","BSTAR":"0.00004883200000","OBJECT_NAME":"STARLINK-1741","DECAY_DATE":null,"LAUNCH_DATE":"2020-10-06"},{"ELEMENT_SET_NO":"999","NORAD_CAT_ID":"46568","INCLINATION":"53.0542","MEAN_MOTION_DOT":"0.00110939","RCS_SIZE":"LARGE","REV_AT_EPOCH":"4917","LAUNCH_DATE":"2020-10-06","DECAY_DATE":null,"BSTAR":"0.00485370000000","OBJECT_NAME":"STARLINK-1743","MEAN_ELEMENT_THEORY":"SGP4","ARG_OF_PERICENTER":"100.4427","FILE":"3100831","APOAPSIS":"502.991","OBJECT_ID":"2020-070AN","PERIAPSIS":"501.543","MEAN_ANOMALY":"259.6687","EPHEMERIS_TYPE":"0","TLE_LINE2":"2 46568  53.0542  70.6129 0001052 100.4427 259.6687 15.21185112 49172","OBJECT_TYPE":"PAYLOAD","SITE":"AFETR","MEAN_MOTION_DDOT":"0.0000000000000","COUNTRY_CODE":"US","EPOCH":"2021-08-21T13:06:20.159424","TLE_LINE1":"1 46568U 20070AN  21233.54606666  .00110939  00000-0  48537-2 0  9990","ECCENTRICITY":"0.00010520","CENTER_NAME":"EARTH","TIME_SYSTEM":"UTC","MEAN_MOTION":"15.21185112","CLASSIFICATION_TYPE":"U","GP_ID":"183186423","RA_OF_ASC_NODE":"70.6129","PERIOD":"94.663","SEMIMAJOR_AXIS":"6880.402","REF_FRAME":"TEME"},{"ARG_OF_PERICENTER":"95.8929","OBJECT_NAME":"STARLINK-1747","BSTAR":"0.00010766000000","MEAN_ELEMENT_THEORY":"SGP4","DECAY_DATE":null,"LAUNCH_DATE":"2020-10-06","REV_AT_EPOCH":"4933","MEAN_MOTION_DOT":"0.00001322","RCS_SIZE":"LARGE","ELEMENT_SET_NO":"999","INCLINATION":"53.0547","NORAD_CAT_ID":"46569","REF_FRAME":"TEME","SEMIMAJOR_AXIS":"6925.366","RA_OF_ASC_NODE":"56.1963","PERIOD":"95.593","GP_ID":"183187173","TIME_SYSTEM":"UTC","MEAN_MOTION":"15.06394308","CENTER_NAME":"EARTH","ECCENTRICITY":"0.00020090","CLASSIFICATION_TYPE":"U","COUNTRY_CODE":"US","EPOCH":"2021-08-21T00:12:47.348640","TLE_LINE1":"1 46569U 20070AP  21233.00888135  .00001322  00000-0  10766-3 0  9994","OBJECT_TYPE":"PAYLOAD","SITE":"AFETR","MEAN_MOTION_DDOT":"0.0000000000000","MEAN_ANOMALY":"264.2289","TLE_LINE2":"2 46569  53.0547  56.1963 0002009  95.8929 264.2289 15.06394308 49330","EPHEMERIS_TYPE":"0","OBJECT_ID":"2020-070AP","APOAPSIS":"548.622","FILE":"3100831","PERIAPSIS":"545.840"}];
